*******************************************************************************
 Revised: April 12, 2021                Venus                           299 / 2
 
 PHYSICAL DATA (updated 2020-Oct-19):
  Vol. Mean Radius (km) =  6051.84+-0.01 Density (g/cm^3)      =  5.204
  Mass x10^23 (kg)      =    48.685      Volume (x10^10 km^3)  = 92.843
  Sidereal rot. period  =   243.018484 d Sid. Rot. Rate (rad/s)= -0.00000029924
  Mean solar day        =   116.7490 d   Equ. gravity  m/s^2   =  8.870
  Mom. of Inertia       =     0.33       Core radius (km)      = ~3200
  Geometric Albedo      =     0.65       Potential Love # k2   = ~0.25
  GM (km^3/s^2)         = 324858.592     Equatorial Radius, Re = 6051.893 km
  GM 1-sigma (km^3/s^2) =    +-0.006     Mass ratio (Sun/Venus)= 408523.72
  Atmos. pressure (bar) =  90            Max. angular diam.    =   60.2"
  Mean Temperature (K)  = 735            Visual mag. V(1,0)    =   -4.40
  Obliquity to orbit    = 177.3 deg      Hill's sphere rad.,Rp =  167.1
  Sidereal orb. per., y =   0.61519726   Orbit speed, km/s     =   35.021
  Sidereal orb. per., d = 224.70079922   Escape speed, km/s    =   10.361
                                 Perihelion  Aphelion    Mean
  Solar Constant (W/m^2)         2759         2614       2650
  Maximum Planetary IR (W/m^2)    153         153         153
  Minimum Planetary IR (W/m^2)    153         153         153
*******************************************************************************


*******************************************************************************
Ephemeris / WWW_USER Mon Oct  3 12:18:05 2022 Pasadena, USA      / Horizons
*******************************************************************************
Target body name: Venus (299)                     {source: DE441}
Center body name: Solar System Barycenter (0)     {source: DE441}
Center-site name: BODY CENTER
*******************************************************************************
Start time      : A.D. 2025-Mar-23 00:00:00.0000 TDB
Stop  time      : A.D. 2025-May-23 00:00:00.0000 TDB
Step-size       : 1440 minutes
*******************************************************************************
Center geodetic : 0.00000000,0.00000000,0.0000000 {E-lon(deg),Lat(deg),Alt(km)}
Center cylindric: 0.00000000,0.00000000,0.0000000 {E-lon(deg),Dxy(km),Dz(km)}
Center radii    : (undefined)                                                  
Output units    : KM-S
Output type     : GEOMETRIC cartesian states
Output format   : 2 (position and velocity)
Reference frame : Ecliptic of J2000.0
*******************************************************************************
JDTDB
   X     Y     Z
   VX    VY    VZ
*******************************************************************************
$$SOE
2460790.500000000 = A.D. 2025-Apr-25 00:00:00.0000 TDB 
 X =-6.247132597192197E+07 Y =-8.982901076085626E+07 Z = 2.363743819071155E+06
 VX= 2.854826034723457E+01 VY=-2.011993816730726E+01 VZ=-1.923085848297685E+00
2460791.500000000 = A.D. 2025-Apr-26 00:00:00.0000 TDB 
 X =-5.998105866316129E+07 Y =-9.153250714344485E+07 Z = 2.196700798321903E+06
 VX= 2.909303055514807E+01 VY=-1.931036638014670E+01 VZ=-1.943398199062562E+00
2460792.500000000 = A.D. 2025-Apr-27 00:00:00.0000 TDB 
 X =-5.744471009510028E+07 Y =-9.316542247149894E+07 Z = 2.027968447212614E+06
 VX= 2.961489154669925E+01 VY=-1.848622547875144E+01 VZ=-1.962188473747744E+00
2460793.500000000 = A.D. 2025-Apr-28 00:00:00.0000 TDB 
 X =-5.486427610689020E+07 Y =-9.472652610992955E+07 Z = 1.857678837514561E+06
 VX= 3.011346486024368E+01 VY=-1.764816834822017E+01 VZ=-1.979443807333608E+00
2460794.500000000 = A.D. 2025-Apr-29 00:00:00.0000 TDB 
 X =-5.224178443401925E+07 Y =-9.621464423475891E+07 Z = 1.685965100702450E+06
 VX= 3.058839064890075E+01 VY=-1.679685708636163E+01 VZ=-1.995152535324674E+00
2460795.500000000 = A.D. 2025-Apr-30 00:00:00.0000 TDB 
 X =-4.957929309176821E+07 Y =-9.762866060597442E+07 Z = 1.512961324072056E+06
 VX= 3.103932786845577E+01 VY=-1.593296246811797E+01 VZ=-2.009304197233151E+00
2460796.500000000 = A.D. 2025-May-01 00:00:00.0000 TDB 
 X =-4.687888874309726E+07 Y =-9.896751729403834E+07 Z = 1.338802446596220E+06
 VX= 3.146595444987602E+01 VY=-1.505716340842932E+01 VZ=-2.021889539154690E+00
2460797.500000000 = A.D. 2025-May-02 00:00:00.0000 TDB 
 X =-4.414268505228642E+07 Y =-1.002302153599374E+08 Z = 1.163624154596947E+06
 VX= 3.186796745659526E+01 VY=-1.417014642397398E+01 VZ=-2.032900515450975E+00
2460798.500000000 = A.D. 2025-May-03 00:00:00.0000 TDB 
 X =-4.137282102563874E+07 Y =-1.014158154886935E+08 Z = 9.875627773102000E+05
 VX= 3.224508322673402E+01 VY=-1.327260509420494E+01 VZ=-2.042330289554338E+00
2460799.500000000 = A.D. 2025-May-04 00:00:00.0000 TDB 
 X =-3.857145934053990E+07 Y =-1.025234385762915E+08 Z = 8.107551824185625E+05
 VX= 3.259703750043613E+01 VY=-1.236523952208889E+01 VZ=-2.050173233910201E+00
2460800.500000000 = A.D. 2025-May-05 00:00:00.0000 TDB 
 X =-3.574078466415209E+07 Y =-1.035522662700177E+08 Z = 6.333386716254652E+05
 VX= 3.292358553251453E+01 VY=-1.144875579493975E+01 VZ=-2.056424929073760E+00
2460801.500000000 = A.D. 2025-May-06 00:00:00.0000 TDB 
 X =-3.288300196300437E+07 Y =-1.045015414622295E+08 Z = 4.554508763435930E+05
 VX= 3.322450219054500E+01 VY=-1.052386544570174E+01 VZ=-2.061082161972914E+00
2460802.500000000 = A.D. 2025-May-07 00:00:00.0000 TDB 
 X =-3.000033480472758E+07 Y =-1.053705687376152E+08 Z = 2.772296535686031E+05
 VX= 3.349958203869819E+01 VY=-9.591284915082028E+00 VZ=-2.064142923361123E+00
2460803.500000000 = A.D. 2025-May-08 00:00:00.0000 TDB 
 X =-2.709502365315468E+07 Y =-1.061587147740279E+08 Z = 9.881298200739920E+04
 VX= 3.374863940745689E+01 VY=-8.651735014822512E+00 VZ=-2.065606404470768E+00
2460804.500000000 = A.D. 2025-May-09 00:00:00.0000 TDB 
 X =-2.416932415800203E+07 Y =-1.068654086970109E+08 Z =-7.966114147043228E+04
 VX= 3.397150844941869E+01 VY=-7.705940392497434E+00 VZ=-2.065472992884938E+00
2460805.500000000 = A.D. 2025-May-10 00:00:00.0000 TDB 
 X =-2.122550544031979E+07 Y =-1.074901423881558E+08 Z =-2.580548049914464E+05
 VX= 3.416804318145338E+01 VY=-6.754628998103423E+00 VZ=-2.063744267646395E+00
2460806.500000000 = A.D. 2025-May-11 00:00:00.0000 TDB 
 X =-1.826584837488302E+07 Y =-1.080324707474637E+08 Z =-4.362302843822464E+05
 VX= 3.433811751339912E+01 VY=-5.798531552765095E+00 VZ=-2.060422993618770E+00
2460807.500000000 = A.D. 2025-May-12 00:00:00.0000 TDB 
 X =-1.529264387067671E+07 Y =-1.084920119099040E+08 Z =-6.140501453543678E+05
 VX= 3.448162526352660E+01 VY=-4.838381019837647E+00 VZ=-2.055513115117060E+00
2460808.500000000 = A.D. 2025-May-13 00:00:00.0000 TDB 
 X =-1.230819115060806E+07 Y =-1.088684474163899E+08 Z =-7.913773451080099E+05
 VX= 3.459848016099993E+01 VY=-3.874912078674931E+00 VZ=-2.049019748824213E+00
2460809.500000000 = A.D. 2025-May-14 00:00:00.0000 TDB 
 X =-9.314796031559775E+06 Y =-1.091615223394115E+08 Z =-9.680753332934305E+05
 VX= 3.468861583556208E+01 VY=-2.908860601318680E+00 VZ=-2.040949176010553E+00
2460810.500000000 = A.D. 2025-May-15 00:00:00.0000 TDB 
 X =-6.314769205878168E+06 Y =-1.093710453635902E+08 Z =-1.144008152270652E+06
 VX= 3.475198579467192E+01 VY=-1.940963132351665E+00 VZ=-2.031308834072392E+00
2460811.500000000 = A.D. 2025-May-16 00:00:00.0000 TDB 
 X =-3.310424525370564E+06 Y =-1.094968888214376E+08 Z =-1.319040536609165E+06
 VX= 3.478856338831993E+01 VY=-9.719563721447021E-01 VZ=-2.020107307406108E+00
2460812.500000000 = A.D. 2025-May-17 00:00:00.0000 TDB 
 X =-3.040772888668124E+05 Y =-1.095389886846205E+08 Z =-1.493038011771150E+06
 VX= 3.479834176174783E+01 VY=-2.576663714548788E-03 VZ=-2.007354317633674E+00
2460813.500000000 = A.D. 2025-May-18 00:00:00.0000 TDB 
 X = 2.701957465619780E+06 Y =-1.094973445110547E+08 Z =-1.665866991922654E+06
 VX= 3.478133379629790E+01 VY= 9.664405166031246E-01 VZ=-1.993060713195429E+00
2460814.500000000 = A.D. 2025-May-19 00:00:00.0000 TDB 
 X = 5.705366663116153E+06 Y =-1.093720193481646E+08 Z =-1.837394876818828E+06
 VX= 3.473757203861618E+01 VY= 1.934361064474382E+00 VZ=-1.977238458325692E+00
2460815.500000000 = A.D. 2025-May-20 00:00:00.0000 TDB 
 X = 8.703840887301296E+06 Y =-1.091631395926621E+08 Z =-2.007490147710554E+06
 VX= 3.466710861843353E+01 VY= 2.900452748702858E+00 VZ=-1.959900621426584E+00
2460816.500000000 = A.D. 2025-May-21 00:00:00.0000 TDB 
 X = 1.169507606852901E+07 Y =-1.088708948072146E+08 Z =-2.176022462221108E+06
 VX= 3.457001515514783E+01 VY= 3.863985708015193E+00 VZ=-1.941061362855191E+00
2460817.500000000 = A.D. 2025-May-22 00:00:00.0000 TDB 
 X = 1.467677516330213E+07 Y =-1.084955374943850E+08 Z =-2.342862748142824E+06
 VX= 3.444638265338431E+01 VY= 4.824232943314309E+00 VZ=-1.920735922137102E+00
2460818.500000000 = A.D. 2025-May-23 00:00:00.0000 TDB 
 X = 1.764664982425642E+07 Y =-1.080373828282415E+08 Z =-2.507883296104759E+06
 VX= 3.429632138781089E+01 VY= 5.780470805284850E+00 VZ=-1.898940604623315E+00
